start=new Date('2023-04-10T00:00:00.000Z').valueOf();
sats=[{"FILE":"3884641","MEAN_MOTION_DOT":"0.00021377","TIME_SYSTEM":"UTC","ELEMENT_SET_NO":"999","MEAN_ELEMENT_THEORY":"SGP4","PERIOD":"95.589","DECAY_DATE":null,"LAUNCH_DATE":"2021-03-04","OBJECT_NAME":"STARLINK-2160","EPOCH":"2023-04-09T20:52:29.249472","SEMIMAJOR_AXIS":"6925.179","RA_OF_ASC_NODE":"311.7772","BSTAR":"0.00144750000000","INCLINATION":"53.0532","MEAN_MOTION_DDOT":"0.0000000000000","ECCENTRICITY":"0.00012270","NORAD_CAT_ID":"47746","REV_AT_EPOCH":"11722","GP_ID":"229808908","APOAPSIS":"547.894","OBJECT_ID":"2021-017AA","REF_FRAME":"TEME","RCS_SIZE":"LARGE","MEAN_ANOMALY":"268.9047","SITE":"AFETR","ARG_OF_PERICENTER":"91.2082","OBJECT_TYPE":"PAYLOAD","PERIAPSIS":"546.195","CLASSIFICATION_TYPE":"U","COUNTRY_CODE":"US","TLE_LINE2":"2 47746  53.0532 311.7772 0001227  91.2082 268.9047 15.06455170117223","TLE_LINE1":"1 47746U 21017AA  23099.86978298  .00021377  00000-0  14475-2 0  9992","MEAN_MOTION":"15.06455170","EPHEMERIS_TYPE":"0","CENTER_NAME":"EARTH"},{"MEAN_ELEMENT_THEORY":"SGP4","PERIOD":"95.592","FILE":"3884641","MEAN_MOTION_DOT":"0.00007361","TIME_SYSTEM":"UTC","ELEMENT_SET_NO":"999","EPOCH":"2023-04-09T19:13:00.800544","SEMIMAJOR_AXIS":"6925.351","RA_OF_ASC_NODE":"302.0932","DECAY_DATE":null,"OBJECT_NAME":"STARLINK-2161","LAUNCH_DATE":"2021-03-04","BSTAR":"0.00051251000000","NORAD_CAT_ID":"47747","REV_AT_EPOCH":"11739","GP_ID":"229807170","MEAN_MOTION_DDOT":"0.0000000000000","INCLINATION":"53.0543","ECCENTRICITY":"0.00007550","RCS_SIZE":"LARGE","MEAN_ANOMALY":"256.9732","OBJECT_ID":"2021-017AB","APOAPSIS":"547.739","REF_FRAME":"TEME","ARG_OF_PERICENTER":"103.1341","OBJECT_TYPE":"PAYLOAD","PERIAPSIS":"546.693","SITE":"AFETR","TLE_LINE1":"1 47747U 21017AB  23099.80070371  .00007361  00000-0  51251-3 0  9993","MEAN_MOTION":"15.06399121","COUNTRY_CODE":"US","CLASSIFICATION_TYPE":"U","TLE_LINE2":"2 47747  53.0543 302.0932 0000755 103.1341 256.9732 15.06399121117392","CENTER_NAME":"EARTH","EPHEMERIS_TYPE":"0"},{"MEAN_MOTION_DDOT":"0.0000000000000","INCLINATION":"53.0546","ECCENTRICITY":"0.00006260","NORAD_CAT_ID":"47748","REV_AT_EPOCH":"11737","GP_ID":"229807415","BSTAR":"0.00091941000000","DECAY_DATE":null,"LAUNCH_DATE":"2021-03-04","OBJECT_NAME":"STARLINK-2162","EPOCH":"2023-04-09T20:37:56.395200","SEMIMAJOR_AXIS":"6925.302","RA_OF_ASC_NODE":"301.8279","FILE":"3884641","MEAN_MOTION_DOT":"0.00013445","TIME_SYSTEM":"UTC","ELEMENT_SET_NO":"999","MEAN_ELEMENT_THEORY":"SGP4","PERIOD":"95.591","EPHEMERIS_TYPE":"0","CENTER_NAME":"EARTH","COUNTRY_CODE":"US","CLASSIFICATION_TYPE":"U","TLE_LINE2":"2 47748  53.0546 301.8279 0000626  83.3079 276.7981 15.06415071117378","TLE_LINE1":"1 47748U 21017AC  23099.85968050  .00013445  00000-0  91941-3 0  9999","MEAN_MOTION":"15.06415071","SITE":"AFETR","ARG_OF_PERICENTER":"83.3079","PERIAPSIS":"546.734","OBJECT_TYPE":"PAYLOAD","OBJECT_ID":"2021-017AC","APOAPSIS":"547.601","REF_FRAME":"TEME","RCS_SIZE":"LARGE","MEAN_ANOMALY":"276.7981"},{"CLASSIFICATION_TYPE":"U","COUNTRY_CODE":"US","TLE_LINE2":"2 47749  53.0539 302.3546 0001163  94.0994 266.0128 15.06415372117353","TLE_LINE1":"1 47749U 21017AD  23099.74173059  .00015351  00000-0  10468-2 0  9997","MEAN_MOTION":"15.06415372","EPHEMERIS_TYPE":"0","CENTER_NAME":"EARTH","REF_FRAME":"TEME","OBJECT_ID":"2021-017AD","APOAPSIS":"547.972","MEAN_ANOMALY":"266.0128","RCS_SIZE":"LARGE","SITE":"AFETR","ARG_OF_PERICENTER":"94.0994","PERIAPSIS":"546.361","OBJECT_TYPE":"PAYLOAD","BSTAR":"0.00104680000000","INCLINATION":"53.0539","MEAN_MOTION_DDOT":"0.0000000000000","ECCENTRICITY":"0.00011630","NORAD_CAT_ID":"47749","GP_ID":"229808665","REV_AT_EPOCH":"11735","FILE":"3884641","MEAN_MOTION_DOT":"0.00015351","ELEMENT_SET_NO":"999","TIME_SYSTEM":"UTC","MEAN_ELEMENT_THEORY":"SGP4","PERIOD":"95.591","DECAY_DATE":null,"OBJECT_NAME":"STARLINK-2163","LAUNCH_DATE":"2021-03-04","SEMIMAJOR_AXIS":"6925.301","EPOCH":"2023-04-09T17:48:05.522976","RA_OF_ASC_NODE":"302.3546"},{"MEAN_ELEMENT_THEORY":"SGP4","PERIOD":"95.590","FILE":"3884641","MEAN_MOTION_DOT":"0.00017308","ELEMENT_SET_NO":"999","TIME_SYSTEM":"UTC","SEMIMAJOR_AXIS":"6925.263","EPOCH":"2023-04-09T22:02:50.972928","RA_OF_ASC_NODE":"301.5640","DECAY_DATE":null,"LAUNCH_DATE":"2021-03-04","OBJECT_NAME":"STARLINK-2164","BSTAR":"0.00117710000000","NORAD_CAT_ID":"47750","GP_ID":"229808408","REV_AT_EPOCH":"11738","MEAN_MOTION_DDOT":"0.0000000000000","INCLINATION":"53.0532","ECCENTRICITY":"0.00012150","MEAN_ANOMALY":"272.6174","RCS_SIZE":"LARGE","REF_FRAME":"TEME","OBJECT_ID":"2021-017AE","APOAPSIS":"547.969","ARG_OF_PERICENTER":"87.4954","OBJECT_TYPE":"PAYLOAD","PERIAPSIS":"546.286","SITE":"AFETR","TLE_LINE1":"1 47750U 21017AE  23099.91864552  .00017308  00000-0  11771-2 0  9995","MEAN_MOTION":"15.06428036","COUNTRY_CODE":"US","CLASSIFICATION_TYPE":"U","TLE_LINE2":"2 47750  53.0532 301.5640 0001215  87.4954 272.6174 15.06428036117382","CENTER_NAME":"EARTH","EPHEMERIS_TYPE":"0"},{"MEAN_MOTION_DDOT":"0.0000000000000","INCLINATION":"53.0530","ECCENTRICITY":"0.00012860","NORAD_CAT_ID":"47751","REV_AT_EPOCH":"11752","GP_ID":"229807671","BSTAR":"0.00147560000000","DECAY_DATE":null,"LAUNCH_DATE":"2021-03-04","OBJECT_NAME":"STARLINK-2168","EPOCH":"2023-04-09T21:11:05.712000","SEMIMAJOR_AXIS":"6925.237","RA_OF_ASC_NODE":"291.7186","MEAN_MOTION_DOT":"0.00021787","FILE":"3884641","TIME_SYSTEM":"UTC","ELEMENT_SET_NO":"999","MEAN_ELEMENT_THEORY":"SGP4","PERIOD":"95.590","EPHEMERIS_TYPE":"0","CENTER_NAME":"EARTH","COUNTRY_CODE":"US","CLASSIFICATION_TYPE":"U","TLE_LINE2":"2 47751  53.0530 291.7186 0001286  78.1132 282.0001 15.06436431117527","TLE_LINE1":"1 47751U 21017AF  23099.88270500  .00021787  00000-0  14756-2 0  9998","MEAN_MOTION":"15.06436431","SITE":"AFETR","ARG_OF_PERICENTER":"78.1132","PERIAPSIS":"546.211","OBJECT_TYPE":"PAYLOAD","OBJECT_ID":"2021-017AF","APOAPSIS":"547.992","REF_FRAME":"TEME","RCS_SIZE":"LARGE","MEAN_ANOMALY":"282.0001"},{"DECAY_DATE":null,"LAUNCH_DATE":"2021-03-04","OBJECT_NAME":"STARLINK-2169","SEMIMAJOR_AXIS":"6925.176","EPOCH":"2023-04-09T18:48:24.937344","RA_OF_ASC_NODE":"307.1657","FILE":"3884641","MEAN_MOTION_DOT":"0.00021450","ELEMENT_SET_NO":"999","TIME_SYSTEM":"UTC","MEAN_ELEMENT_THEORY":"SGP4","PERIOD":"95.589","MEAN_MOTION_DDOT":"0.0000000000000","INCLINATION":"53.0541","ECCENTRICITY":"0.00012090","NORAD_CAT_ID":"47752","GP_ID":"229807916","REV_AT_EPOCH":"11734","BSTAR":"0.00145230000000","SITE":"AFETR","ARG_OF_PERICENTER":"88.3788","OBJECT_TYPE":"PAYLOAD","PERIAPSIS":"546.204","REF_FRAME":"TEME","OBJECT_ID":"2021-017AG","APOAPSIS":"547.878","MEAN_ANOMALY":"271.7340","RCS_SIZE":"LARGE","EPHEMERIS_TYPE":"0","CENTER_NAME":"EARTH","COUNTRY_CODE":"US","CLASSIFICATION_TYPE":"U","TLE_LINE2":"2 47752  53.0541 307.1657 0001209  88.3788 271.7340 15.06456328117348","TLE_LINE1":"1 47752U 21017AG  23099.78362196  .00021450  00000-0  14523-2 0  9990","MEAN_MOTION":"15.06456328"},{"NORAD_CAT_ID":"47753","GP_ID":"229782400","REV_AT_EPOCH":"11660","MEAN_MOTION_DDOT":"0.0000000000000","INCLINATION":"53.0549","ECCENTRICITY":"0.00010970","BSTAR":"0.00085589000000","SEMIMAJOR_AXIS":"6925.325","EPOCH":"2023-04-09T21:24:23.010336","RA_OF_ASC_NODE":"311.6801","DECAY_DATE":null,"OBJECT_NAME":"STARLINK-2170","LAUNCH_DATE":"2021-03-04","MEAN_ELEMENT_THEORY":"SGP4","PERIOD":"95.592","MEAN_MOTION_DOT":"0.00012493","FILE":"3884464","ELEMENT_SET_NO":"999","TIME_SYSTEM":"UTC","CENTER_NAME":"EARTH","EPHEMERIS_TYPE":"0","TLE_LINE1":"1 47753U 21017AH  23099.89193299  .00012493  00000-0  85589-3 0  9997","MEAN_MOTION":"15.06407686","COUNTRY_CODE":"US","CLASSIFICATION_TYPE":"U","TLE_LINE2":"2 47753  53.0549 311.6801 0001097  92.6183 267.4932 15.06407686116600","ARG_OF_PERICENTER":"92.6183","PERIAPSIS":"546.430","OBJECT_TYPE":"PAYLOAD","SITE":"AFETR","MEAN_ANOMALY":"267.4932","RCS_SIZE":"LARGE","REF_FRAME":"TEME","OBJECT_ID":"2021-017AH","APOAPSIS":"547.950"},{"PERIOD":"95.589","MEAN_ELEMENT_THEORY":"SGP4","TIME_SYSTEM":"UTC","ELEMENT_SET_NO":"999","MEAN_MOTION_DOT":"0.00026392","FILE":"3884641","RA_OF_ASC_NODE":"311.8138","EPOCH":"2023-04-09T20:41:52.618848","SEMIMAJOR_AXIS":"6925.178","OBJECT_NAME":"STARLINK-2171","LAUNCH_DATE":"2021-03-04","DECAY_DATE":null,"BSTAR":"0.00178140000000","REV_AT_EPOCH":"11724","GP_ID":"229808909","NORAD_CAT_ID":"47754","ECCENTRICITY":"0.00012550","INCLINATION":"53.0539","MEAN_MOTION_DDOT":"0.0000000000000","RCS_SIZE":"LARGE","MEAN_ANOMALY":"273.2404","APOAPSIS":"547.912","OBJECT_ID":"2021-017AJ","REF_FRAME":"TEME","PERIAPSIS":"546.174","OBJECT_TYPE":"PAYLOAD","ARG_OF_PERICENTER":"86.8729","SITE":"AFETR","MEAN_MOTION":"15.06455590","TLE_LINE1":"1 47754U 21017AJ  23099.86241457  .00026392  00000-0  17814-2 0  9993","TLE_LINE2":"2 47754  53.0539 311.8138 0001255  86.8729 273.2404 15.06455590117249","COUNTRY_CODE":"US","CLASSIFICATION_TYPE":"U","CENTER_NAME":"EARTH","EPHEMERIS_TYPE":"0"},{"GP_ID":"229807171","REV_AT_EPOCH":"11728","NORAD_CAT_ID":"47756","ECCENTRICITY":"0.00012390","MEAN_MOTION_DDOT":"0.0000000000000","INCLINATION":"53.0534","BSTAR":"0.00139570000000","RA_OF_ASC_NODE":"311.8275","SEMIMAJOR_AXIS":"6925.296","EPOCH":"2023-04-09T20:36:37.073952","LAUNCH_DATE":"2021-03-04","OBJECT_NAME":"STARLINK-2174","DECAY_DATE":null,"PERIOD":"95.591","MEAN_ELEMENT_THEORY":"SGP4","ELEMENT_SET_NO":"999","TIME_SYSTEM":"UTC","MEAN_MOTION_DOT":"0.00020578","FILE":"3884641","CENTER_NAME":"EARTH","EPHEMERIS_TYPE":"0","MEAN_MOTION":"15.06417303","TLE_LINE1":"1 47756U 21017AL  23099.85876243  .00020578  00000-0  13957-2 0  9995","TLE_LINE2":"2 47756  53.0534 311.8275 0001239  84.9754 275.1376 15.06417303117280","CLASSIFICATION_TYPE":"U","COUNTRY_CODE":"US","OBJECT_TYPE":"PAYLOAD","PERIAPSIS":"546.302","ARG_OF_PERICENTER":"84.9754","SITE":"AFETR","MEAN_ANOMALY":"275.1376","RCS_SIZE":"LARGE","REF_FRAME":"TEME","APOAPSIS":"548.019","OBJECT_ID":"2021-017AL"}];
